[{"OBJECT_NAME":"STARLINK-4296","OBJECT_ID":"2022-076K","EPOCH":"2025-09-05T03:42:38.945088","MEAN_MOTION":15.08865088,"ECCENTRICITY":0.00013965,"INCLINATION":53.2171,"RA_OF_ASC_NODE":207.0203,"ARG_OF_PERICENTER":82.9712,"MEAN_ANOMALY":277.1439,"EPHEMERIS_TYPE":0,"CLASSIFICATION_TYPE":"U","NORAD_CAT_ID":52995,"ELEMENT_SET_NO":999,"REV_AT_EPOCH":17483,"BSTAR":-0.00036508006,"MEAN_MOTION_DOT":-6.098e-5,"MEAN_MOTION_DDOT":0},{"OBJECT_NAME":"STARLINK-4295","OBJECT_ID":"2022-076L","EPOCH":"2025-09-05T04:26:30.475680","MEAN_MOTION":15.08825406,"ECCENTRICITY":0.00013245,"INCLINATION":53.2175,"RA_OF_ASC_NODE":207.1668,"ARG_OF_PERICENTER":103.5655,"MEAN_ANOMALY":256.5485,"EPHEMERIS_TYPE":0,"CLASSIFICATION_TYPE":"U","NORAD_CAT_ID":52996,"ELEMENT_SET_NO":999,"REV_AT_EPOCH":17483,"BSTAR":-1.5094983e-5,"MEAN_MOTION_DOT":-5.28e-6,"MEAN_MOTION_DDOT":0},{"OBJECT_NAME":"STARLINK-4254","OBJECT_ID":"2022-076N","EPOCH":"2025-09-05T06:37:31.330848","MEAN_MOTION":15.08853717,"ECCENTRICITY":0.00010826,"INCLINATION":53.217,"RA_OF_ASC_NODE":206.3851,"ARG_OF_PERICENTER":82.5656,"MEAN_ANOMALY":277.5459,"EPHEMERIS_TYPE":0,"CLASSIFICATION_TYPE":"U","NORAD_CAT_ID":52998,"ELEMENT_SET_NO":999,"REV_AT_EPOCH":17485,"BSTAR":0.00010853855,"MEAN_MOTION_DOT":1.441e-5,"MEAN_MOTION_DDOT":0},{"OBJECT_NAME":"STARLINK-4217","OBJECT_ID":"2022-076P","EPOCH":"2025-09-05T06:26:56.651136","MEAN_MOTION":15.08834792,"ECCENTRICITY":0.00016773,"INCLINATION":53.2193,"RA_OF_ASC_NODE":206.5074,"ARG_OF_PERICENTER":80.3015,"MEAN_ANOMALY":279.8167,"EPHEMERIS_TYPE":0,"CLASSIFICATION_TYPE":"U","NORAD_CAT_ID":52999,"ELEMENT_SET_NO":999,"REV_AT_EPOCH":17485,"BSTAR":4.2683519e-5,"MEAN_MOTION_DOT":3.91e-6,"MEAN_MOTION_DDOT":0},{"OBJECT_NAME":"STARLINK-4194","OBJECT_ID":"2022-076Q","EPOCH":"2025-09-05T06:48:09.033696","MEAN_MOTION":15.08836382,"ECCENTRICITY":0.00021498,"INCLINATION":53.2169,"RA_OF_ASC_NODE":206.4417,"ARG_OF_PERICENTER":82.8978,"MEAN_ANOMALY":277.2259,"EPHEMERIS_TYPE":0,"CLASSIFICATION_TYPE":"U","NORAD_CAT_ID":53000,"ELEMENT_SET_NO":999,"REV_AT_EPOCH":17485,"BSTAR":0.0001966146,"MEAN_MOTION_DOT":2.842e-5,"MEAN_MOTION_DDOT":0},{"OBJECT_NAME":"STARLINK-4190","OBJECT_ID":"2022-076R","EPOCH":"2025-09-05T06:21:39.087936","MEAN_MOTION":15.08833911,"ECCENTRICITY":0.00014085,"INCLINATION":53.2151,"RA_OF_ASC_NODE":206.5245,"ARG_OF_PERICENTER":91.8175,"MEAN_ANOMALY":268.2979,"EPHEMERIS_TYPE":0,"CLASSIFICATION_TYPE":"U","NORAD_CAT_ID":53001,"ELEMENT_SET_NO":999,"REV_AT_EPOCH":17485,"BSTAR":0.00040505948,"MEAN_MOTION_DOT":6.163e-5,"MEAN_MOTION_DDOT":0},{"OBJECT_NAME":"STARLINK-4121","OBJECT_ID":"2022-076S","EPOCH":"2025-09-05T03:32:04.525440","MEAN_MOTION":15.08820934,"ECCENTRICITY":0.00014656,"INCLINATION":53.2173,"RA_OF_ASC_NODE":207.0533,"ARG_OF_PERICENTER":83.1718,"MEAN_ANOMALY":276.9441,"EPHEMERIS_TYPE":0,"CLASSIFICATION_TYPE":"U","NORAD_CAT_ID":53002,"ELEMENT_SET_NO":999,"REV_AT_EPOCH":17483,"BSTAR":0.00010864103,"MEAN_MOTION_DOT":1.441e-5,"MEAN_MOTION_DDOT":0},{"OBJECT_NAME":"STARLINK-4255","OBJECT_ID":"2022-076T","EPOCH":"2025-09-05T04:35:39.989184","MEAN_MOTION":15.08842732,"ECCENTRICITY":0.00013246,"INCLINATION":53.2165,"RA_OF_ASC_NODE":206.8566,"ARG_OF_PERICENTER":92.5354,"MEAN_ANOMALY":267.579,"EPHEMERIS_TYPE":0,"CLASSIFICATION_TYPE":"U","NORAD_CAT_ID":53003,"ELEMENT_SET_NO":999,"REV_AT_EPOCH":17484,"BSTAR":7.644673e-6,"MEAN_MOTION_DOT":-1.66e-6,"MEAN_MOTION_DDOT":0},{"OBJECT_NAME":"STARLINK-4253","OBJECT_ID":"2022-076U","EPOCH":"2025-09-05T06:32:14.328384","MEAN_MOTION":15.08835041,"ECCENTRICITY":0.00015725,"INCLINATION":53.2186,"RA_OF_ASC_NODE":206.4904,"ARG_OF_PERICENTER":87.1831,"MEAN_ANOMALY":272.9341,"EPHEMERIS_TYPE":0,"CLASSIFICATION_TYPE":"U","NORAD_CAT_ID":53004,"ELEMENT_SET_NO":999,"REV_AT_EPOCH":17485,"BSTAR":5.5988598e-5,"MEAN_MOTION_DOT":6.03e-6,"MEAN_MOTION_DDOT":0},{"OBJECT_NAME":"STARLINK-4288","OBJECT_ID":"2022-076V","EPOCH":"2025-09-05T04:30:21.364992","MEAN_MOTION":15.08837968,"ECCENTRICITY":0.00013727,"INCLINATION":53.217,"RA_OF_ASC_NODE":206.873,"ARG_OF_PERICENTER":90.2474,"MEAN_ANOMALY":269.8675,"EPHEMERIS_TYPE":0,"CLASSIFICATION_TYPE":"U","NORAD_CAT_ID":53005,"ELEMENT_SET_NO":999,"REV_AT_EPOCH":17484,"BSTAR":-1.2301804e-5,"MEAN_MOTION_DOT":-4.84e-6,"MEAN_MOTION_DDOT":0},{"OBJECT_NAME":"STARLINK-4290","OBJECT_ID":"2022-076W","EPOCH":"2025-09-05T06:16:19.759584","MEAN_MOTION":15.08842898,"ECCENTRICITY":0.00017,"INCLINATION":53.2181,"RA_OF_ASC_NODE":206.5434,"ARG_OF_PERICENTER":117.7605,"MEAN_ANOMALY":242.356,"EPHEMERIS_TYPE":0,"CLASSIFICATION_TYPE":"U","NORAD_CAT_ID":53006,"ELEMENT_SET_NO":999,"REV_AT_EPOCH":17485,"BSTAR":0.00010289039,"MEAN_MOTION_DOT":1.35e-5,"MEAN_MOTION_DDOT":0},{"OBJECT_NAME":"STARLINK-4215","OBJECT_ID":"2022-076X","EPOCH":"2025-09-05T05:55:08.361984","MEAN_MOTION":15.08838815,"ECCENTRICITY":0.00013251,"INCLINATION":53.2164,"RA_OF_ASC_NODE":206.6078,"ARG_OF_PERICENTER":91.2381,"MEAN_ANOMALY":268.8763,"EPHEMERIS_TYPE":0,"CLASSIFICATION_TYPE":"U","NORAD_CAT_ID":53007,"ELEMENT_SET_NO":999,"REV_AT_EPOCH":17485,"BSTAR":5.7767304e-5,"MEAN_MOTION_DOT":6.32e-6,"MEAN_MOTION_DDOT":0},{"OBJECT_NAME":"STARLINK-4275","OBJECT_ID":"2022-076Y","EPOCH":"2025-09-05T04:25:03.766368","MEAN_MOTION":15.08822714,"ECCENTRICITY":0.00015034,"INCLINATION":53.2177,"RA_OF_ASC_NODE":206.8813,"ARG_OF_PERICENTER":108.3437,"MEAN_ANOMALY":251.7719,"EPHEMERIS_TYPE":0,"CLASSIFICATION_TYPE":"U","NORAD_CAT_ID":53008,"ELEMENT_SET_NO":999,"REV_AT_EPOCH":17484,"BSTAR":-9.4369111e-5,"MEAN_MOTION_DOT":-1.789e-5,"MEAN_MOTION_DDOT":0},{"OBJECT_NAME":"STARLINK-4277","OBJECT_ID":"2022-076Z","EPOCH":"2025-09-05T03:59:52.956960","MEAN_MOTION":15.08842003,"ECCENTRICITY":0.00012726,"INCLINATION":53.217,"RA_OF_ASC_NODE":196.9674,"ARG_OF_PERICENTER":100.4,"MEAN_ANOMALY":259.7136,"EPHEMERIS_TYPE":0,"CLASSIFICATION_TYPE":"U","NORAD_CAT_ID":53009,"ELEMENT_SET_NO":999,"REV_AT_EPOCH":17497,"BSTAR":-0.00012656109,"MEAN_MOTION_DOT":-2.302e-5,"MEAN_MOTION_DDOT":0},{"OBJECT_NAME":"STARLINK-4263","OBJECT_ID":"2022-076AA","EPOCH":"2025-09-05T03:47:54.532320","MEAN_MOTION":15.08840206,"ECCENTRICITY":0.00013728,"INCLINATION":53.2173,"RA_OF_ASC_NODE":206.7326,"ARG_OF_PERICENTER":86.0326,"MEAN_ANOMALY":274.0823,"EPHEMERIS_TYPE":0,"CLASSIFICATION_TYPE":"U","NORAD_CAT_ID":53010,"ELEMENT_SET_NO":999,"REV_AT_EPOCH":17484,"BSTAR":7.785411e-5,"MEAN_MOTION_DOT":9.51e-6,"MEAN_MOTION_DDOT":0},{"OBJECT_NAME":"STARLINK-4265","OBJECT_ID":"2022-076AB","EPOCH":"2025-09-05T05:29:58.880544","MEAN_MOTION":15.08836411,"ECCENTRICITY":0.00013548,"INCLINATION":53.2178,"RA_OF_ASC_NODE":196.6875,"ARG_OF_PERICENTER":94.5346,"MEAN_ANOMALY":265.5801,"EPHEMERIS_TYPE":0,"CLASSIFICATION_TYPE":"U","NORAD_CAT_ID":53011,"ELEMENT_SET_NO":999,"REV_AT_EPOCH":17498,"BSTAR":4.6215355e-5,"MEAN_MOTION_DOT":4.48e-6,"MEAN_MOTION_DDOT":0}]
