STARLINK-4296           
1 52995U 22076K   25248.15461742 -.00006098  00000+0 -36508-3 0  9997
2 52995  53.2171 207.0203 0001396  82.9712 277.1439 15.08865088174838
STARLINK-4295           
1 52996U 22076L   25248.18507495 -.00000528  00000+0 -15095-4 0  9998
2 52996  53.2175 207.1668 0001324 103.5655 256.5485 15.08825406174838
STARLINK-4254           
1 52998U 22076N   25248.27605707  .00001441  00000+0  10854-3 0  9995
2 52998  53.2170 206.3851 0001082  82.5656 277.5459 15.08853717174850
STARLINK-4217           
1 52999U 22076P   25248.26871124  .00000391  00000+0  42684-4 0  9993
2 52999  53.2193 206.5074 0001677  80.3015 279.8167 15.08834792174853
STARLINK-4194           
1 53000U 22076Q   25248.28343789  .00002842  00000+0  19661-3 0  9991
2 53000  53.2169 206.4417 0002149  82.8978 277.2259 15.08836382174851
STARLINK-4190           
1 53001U 22076R   25248.26503574  .00006163  00000+0  40506-3 0  9992
2 53001  53.2151 206.5245 0001408  91.8175 268.2979 15.08833911174853
STARLINK-4121           
1 53002U 22076S   25248.14727460  .00001441  00000+0  10864-3 0  9990
2 53002  53.2173 207.0533 0001465  83.1718 276.9441 15.08820934174833
STARLINK-4255           
1 53003U 22076T   25248.19143506 -.00000166  00000+0  76447-5 0  9994
2 53003  53.2165 206.8566 0001324  92.5354 267.5790 15.08842732174846
STARLINK-4253           
1 53004U 22076U   25248.27238806  .00000603  00000+0  55989-4 0  9994
2 53004  53.2186 206.4904 0001572  87.1831 272.9341 15.08835041174855
STARLINK-4288           
1 53005U 22076V   25248.18774728 -.00000484  00000+0 -12302-4 0  9994
2 53005  53.2170 206.8730 0001372  90.2474 269.8675 15.08837968174840
STARLINK-4290           
1 53006U 22076W   25248.26133981  .00001350  00000+0  10289-3 0  9996
2 53006  53.2181 206.5434 0001700 117.7605 242.3560 15.08842898174855
STARLINK-4215           
1 53007U 22076X   25248.24662456  .00000632  00000+0  57767-4 0  9994
2 53007  53.2164 206.6078 0001325  91.2381 268.8763 15.08838815174854
STARLINK-4275           
1 53008U 22076Y   25248.18407137 -.00001789  00000+0 -94369-4 0  9996
2 53008  53.2177 206.8813 0001503 108.3437 251.7719 15.08822714174840
STARLINK-4277           
1 53009U 22076Z   25248.16658515 -.00002302  00000+0 -12656-3 0  9993
2 53009  53.2170 196.9674 0001272 100.4000 259.7136 15.08842003174978
STARLINK-4263           
1 53010U 22076AA  25248.15827005  .00000951  00000+0  77854-4 0  9994
2 53010  53.2173 206.7326 0001372  86.0326 274.0823 15.08840206174840
STARLINK-4265           
1 53011U 22076AB  25248.22915371  .00000448  00000+0  46215-4 0  9995
2 53011  53.2178 196.6875 0001354  94.5346 265.5801 15.08836411174987
